[{"OBJECT_NAME":"STARLINK-3634","OBJECT_ID":"2022-017AG","EPOCH":"2026-03-09T22:39:02.109888","MEAN_MOTION":15.08833811,"ECCENTRICITY":0.00012677,"INCLINATION":53.2187,"RA_OF_ASC_NODE":347.9783,"ARG_OF_PERICENTER":113.7948,"MEAN_ANOMALY":246.3177,"EPHEMERIS_TYPE":0,"CLASSIFICATION_TYPE":"U","NORAD_CAT_ID":51798,"ELEMENT_SET_NO":999,"REV_AT_EPOCH":22400,"BSTAR":3.538134e-6,"MEAN_MOTION_DOT":-2.32e-6,"MEAN_MOTION_DDOT":0},{"OBJECT_NAME":"LEMUR-2-NEUROSPICY","OBJECT_ID":"2025-061E","EPOCH":"2026-03-09T21:29:47.005152","MEAN_MOTION":15.13370729,"ECCENTRICITY":0.00155025,"INCLINATION":97.5545,"RA_OF_ASC_NODE":45.3302,"ARG_OF_PERICENTER":239.5457,"MEAN_ANOMALY":120.4243,"EPHEMERIS_TYPE":0,"CLASSIFICATION_TYPE":"U","NORAD_CAT_ID":63355,"ELEMENT_SET_NO":999,"REV_AT_EPOCH":5259,"BSTAR":0.00032487858,"MEAN_MOTION_DOT":5.745e-5,"MEAN_MOTION_DDOT":0}]
